{
  "type": "FeatureCollection",
  "features": [
    {
      "type": "Feature",
      "properties": {
        "norad_id": 40894,
        "name": "GAOFEN-9 01",
        "group": "resource",
        "lat": -2.5365881015473084,
        "lon": 17.825627729978518,
        "alt_km": 616.1558818038047,
        "timestamp": "2025-12-04T03:47:54.211002+00:00",
        "meta_object_name": "GAOFEN-9 01",
        "meta_object_id": "2015-047A",
        "meta_epoch": "2025-12-03T21:19:47.504928",
        "meta_mean_motion": 14.82385602,
        "meta_eccentricity": 0.0028912,
        "meta_inclination": 97.6555,
        "meta_ra_of_asc_node": 17.2263,
        "meta_arg_of_pericenter": 62.1893,
        "meta_mean_anomaly": 298.2246,
        "meta_ephemeris_type": 0,
        "meta_classification_type": "U",
        "meta_norad_cat_id": 40894,
        "meta_element_set_no": 999,
        "meta_rev_at_epoch": 55125,
        "meta_bstar": 0.0002354,
        "meta_mean_motion_dot": 1.847e-05,
        "meta_mean_motion_ddot": 0,
        "tle_line1": "1 40894U 15047A   25337.88874427  .00001847  00000+0  23540-3 0  9996",
        "tle_line2": "2 40894  97.6555  17.2263 0028912  62.1893 298.2246 14.82385602551256"
      },
      "geometry": {
        "type": "Point",
        "coordinates": [
          17.825627729978518,
          -2.5365881015473084
        ]
      }
    },
    {
      "type": "Feature",
      "properties": {
        "norad_id": 41026,
        "name": "YAOGAN-28",
        "group": "resource",
        "lat": -60.21372277375202,
        "lon": 129.09949757630406,
        "alt_km": 507.34871850907984,
        "timestamp": "2025-12-04T03:47:54.211012+00:00",
        "meta_object_name": "YAOGAN-28",
        "meta_object_id": "2015-064A",
        "meta_epoch": "2025-12-03T20:11:16.401120",
        "meta_mean_motion": 15.24104997,
        "meta_eccentricity": 0.0011974,
        "meta_inclination": 97.2799,
        "meta_ra_of_asc_node": 115.8864,
        "meta_arg_of_pericenter": 155.4384,
        "meta_mean_anomaly": 204.7427,
        "meta_ephemeris_type": 0,
        "meta_classification_type": "U",
        "meta_norad_cat_id": 41026,
        "meta_element_set_no": 999,
        "meta_rev_at_epoch": 56089,
        "meta_bstar": 0.00051925,
        "meta_mean_motion_dot": 0.00012581,
        "meta_mean_motion_ddot": 0,
        "tle_line1": "1 41026U 15064A   25337.84116205  .00012581  00000+0  51925-3 0  9997",
        "tle_line2": "2 41026  97.2799 115.8864 0011974 155.4384 204.7427 15.24104997560899"
      },
      "geometry": {
        "type": "Point",
        "coordinates": [
          129.09949757630406,
          -60.21372277375202
        ]
      }
    },
    {
      "type": "Feature",
      "properties": {
        "norad_id": 41038,
        "name": "YAOGAN-29",
        "group": "resource",
        "lat": -50.32058601316215,
        "lon": 171.51371970554217,
        "alt_km": 627.5622399661324,
        "timestamp": "2025-12-04T03:47:54.211022+00:00",
        "meta_object_name": "YAOGAN-29",
        "meta_object_id": "2015-069A",
        "meta_epoch": "2025-12-03T20:16:55.900416",
        "meta_mean_motion": 14.82866516,
        "meta_eccentricity": 7.28e-05,
        "meta_inclination": 98.0228,
        "meta_ra_of_asc_node": 0.9879,
        "meta_arg_of_pericenter": 5.6766,
        "meta_mean_anomaly": 354.4455,
        "meta_ephemeris_type": 0,
        "meta_classification_type": "U",
        "meta_norad_cat_id": 41038,
        "meta_element_set_no": 999,
        "meta_rev_at_epoch": 54167,
        "meta_bstar": 0.00010616,
        "meta_mean_motion_dot": 8.06e-06,
        "meta_mean_motion_ddot": 0,
        "tle_line1": "1 41038U 15069A   25337.84509144  .00000806  00000+0  10616-3 0  9992",
        "tle_line2": "2 41038  98.0228   0.9879 0000728   5.6766 354.4455 14.82866516541677"
      },
      "geometry": {
        "type": "Point",
        "coordinates": [
          171.51371970554217,
          -50.32058601316215
        ]
      }
    },
    {
      "type": "Feature",
      "properties": {
        "norad_id": 41167,
        "name": "KENT RIDGE 1",
        "group": "resource",
        "lat": -7.210209340313585,
        "lon": 123.05731581634974,
        "alt_km": 504.9705325999739,
        "timestamp": "2025-12-04T03:47:54.211033+00:00",
        "meta_object_name": "KENT RIDGE 1",
        "meta_object_id": "2015-077B",
        "meta_epoch": "2025-12-03T04:51:29.321280",
        "meta_mean_motion": 15.21515134,
        "meta_eccentricity": 0.00086777,
        "meta_inclination": 14.9806,
        "meta_ra_of_asc_node": 281.9029,
        "meta_arg_of_pericenter": 355.7263,
        "meta_mean_anomaly": 4.2984,
        "meta_ephemeris_type": 0,
        "meta_classification_type": "U",
        "meta_norad_cat_id": 41167,
        "meta_element_set_no": 999,
        "meta_rev_at_epoch": 55118,
        "meta_bstar": 0.0002495538,
        "meta_mean_motion_dot": 6.551e-05,
        "meta_mean_motion_ddot": 0,
        "tle_line1": "1 41167U 15077B   25337.20242270  .00006551  00000+0  24955-3 0  9992",
        "tle_line2": "2 41167  14.9806 281.9029 0008677 355.7263   4.2984 15.21515134551184"
      },
      "geometry": {
        "type": "Point",
        "coordinates": [
          123.05731581634974,
          -7.210209340313585
        ]
      }
    },
    {
      "type": "Feature",
      "properties": {
        "norad_id": 41194,
        "name": "GAOFEN-4",
        "group": "resource",
        "lat": 0.032261971878890024,
        "lon": -124.08846328830806,
        "alt_km": 35775.63404661222,
        "timestamp": "2025-12-04T03:47:54.211045+00:00",
        "meta_object_name": "GAOFEN-4",
        "meta_object_id": "2015-083A",
        "meta_epoch": "2025-12-03T20:03:59.764032",
        "meta_mean_motion": 1.00273387,
        "meta_eccentricity": 0.0003737,
        "meta_inclination": 0.146,
        "meta_ra_of_asc_node": 80.7672,
        "meta_arg_of_pericenter": 104.6053,
        "meta_mean_anomaly": 294.2325,
        "meta_ephemeris_type": 0,
        "meta_classification_type": "U",
        "meta_norad_cat_id": 41194,
        "meta_element_set_no": 999,
        "meta_rev_at_epoch": 3657,
        "meta_bstar": 0,
        "meta_mean_motion_dot": -3.18e-06,
        "meta_mean_motion_ddot": 0,
        "tle_line1": "1 41194U 15083A   25337.83610838 -.00000318  00000+0  00000+0 0  9994",
        "tle_line2": "2 41194   0.1460  80.7672 0003737 104.6053 294.2325  1.00273387 36570"
      },
      "geometry": {
        "type": "Point",
        "coordinates": [
          -124.08846328830806,
          0.032261971878890024
        ]
      }
    },
    {
      "type": "Feature",
      "properties": {
        "norad_id": 41240,
        "name": "JASON-3",
        "group": "resource",
        "lat": 39.079666394162324,
        "lon": -25.301428895138425,
        "alt_km": 1310.8251468602266,
        "timestamp": "2025-12-04T03:47:54.211057+00:00",
        "meta_object_name": "JASON-3",
        "meta_object_id": "2016-002A",
        "meta_epoch": "2025-12-03T19:38:09.860352",
        "meta_mean_motion": 12.87625977,
        "meta_eccentricity": 0.000714,
        "meta_inclination": 66.0392,
        "meta_ra_of_asc_node": 176.5813,
        "meta_arg_of_pericenter": 270.2896,
        "meta_mean_anomaly": 89.7304,
        "meta_ephemeris_type": 0,
        "meta_classification_type": "U",
        "meta_norad_cat_id": 41240,
        "meta_element_set_no": 999,
        "meta_rev_at_epoch": 46209,
        "meta_bstar": 0.00012756,
        "meta_mean_motion_dot": -3e-07,
        "meta_mean_motion_ddot": 0,
        "tle_line1": "1 41240U 16002A   25337.81816968 -.00000030  00000+0  12756-3 0  9994",
        "tle_line2": "2 41240  66.0392 176.5813 0007140 270.2896  89.7304 12.87625977462092"
      },
      "geometry": {
        "type": "Point",
        "coordinates": [
          -25.301428895138425,
          39.079666394162324
        ]
      }
    },
    {
      "type": "Feature",
      "properties": {
        "norad_id": 41335,
        "name": "SENTINEL-3A",
        "group": "resource",
        "lat": -41.00807078871783,
        "lon": -144.28712265263957,
        "alt_km": 809.6347407885369,
        "timestamp": "2025-12-04T03:47:54.211067+00:00",
        "meta_object_name": "SENTINEL-3A",
        "meta_object_id": "2016-011A",
        "meta_epoch": "2025-12-03T18:20:52.648800",
        "meta_mean_motion": 14.26740924,
        "meta_eccentricity": 9.93e-05,
        "meta_inclination": 98.6219,
        "meta_ra_of_asc_node": 42.9061,
        "meta_arg_of_pericenter": 91.2656,
        "meta_mean_anomaly": 268.8638,
        "meta_ephemeris_type": 0,
        "meta_classification_type": "U",
        "meta_norad_cat_id": 41335,
        "meta_element_set_no": 999,
        "meta_rev_at_epoch": 51019,
        "meta_bstar": 0.00011789,
        "meta_mean_motion_dot": 2.42e-06,
        "meta_mean_motion_ddot": 0,
        "tle_line1": "1 41335U 16011A   25337.76449825  .00000242  00000+0  11789-3 0  9996",
        "tle_line2": "2 41335  98.6219  42.9061 0000993  91.2656 268.8638 14.26740924510191"
      },
      "geometry": {
        "type": "Point",
        "coordinates": [
          -144.28712265263957,
          -41.00807078871783
        ]
      }
    }
  ]
}